NORAD_CAT_ID,OBJECT_NAME,OBJECT_TYPE,EPOCH,MEAN_MOTION,ECCENTRICITY,INCLINATION,RA_OF_ASC_NODE,ARG_OF_PERICENTER,MEAN_ANOMALY,BSTAR,MEAN_MOTION_DOT,MEAN_MOTION_DDOT,TLE_LINE0,TLE_LINE1,TLE_LINE2,SEMIMAJOR_AXIS,PERIOD,APOGEE,PERIGEE,DECAYED
52091.0,STARLINK-3713,PAYLOAD,2023-11-23 01:58:29,15.08855411,0.0001711,53.2172,249.287,101.9273,258.1911,0.00032,4.811e-05,0.0,0 STARLINK-3713,1 52091U 22029D   23327.08229048  .00004811  00000-0  32000-3 0  9994,2 52091  53.2172 249.2870 0001711 101.9273 258.1911 15.08855411 94204,6917.833,95.437,540.882,538.515,0.0
52091.0,STARLINK-3713,PAYLOAD,2023-11-23 19:27:45,15.08826232,0.000163,53.2174,246.0148,120.8,239.3152,-0.00018865,-3.288e-05,0.0,0 STARLINK-3713,1 52091U 22029D   23327.81094369 -.00003288  00000-0 -18865-3 0  9993,2 52091  53.2174 246.0148 0001630 120.8000 239.3152 15.08826232 94316,6917.922,95.438,540.915,538.66,0.0
52091.0,STARLINK-3713,PAYLOAD,2023-11-23 22:38:31,15.08826463,0.0001694,53.2172,245.4199,121.4674,238.6484,-0.0001515,-2.697e-05,0.0,0 STARLINK-3713,1 52091U 22029D   23327.94342538 -.00002697  00000-0 -15150-3 0  9998,2 52091  53.2172 245.4199 0001694 121.4674 238.6484 15.08826463 94335,6917.922,95.438,540.959,538.615,0.0
52091.0,STARLINK-3713,PAYLOAD,2023-11-24 00:13:55,15.08827165,0.0001746,53.2171,245.1224,121.7076,238.4087,-0.00013323,-2.407e-05,0.0,0 STARLINK-3713,1 52091U 22029D   23328.00966551 -.00002407  00000-0 -13323-3 0  9992,2 52091  53.2171 245.1224 0001746 121.7076 238.4087 15.08827165 94345,6917.92,95.438,540.992,538.577,0.0
52091.0,STARLINK-3713,PAYLOAD,2023-11-24 22:29:19,15.08836437,0.0001646,53.2174,240.9611,122.8412,237.2739,6.6039e-05,7.63e-06,0.0,0 STARLINK-3713,1 52091U 22029D   23328.93702913  .00000763  00000-0  66039-4 0  9998,2 52091  53.2174 240.9611 0001646 122.8412 237.2739 15.08836437 94484,6917.891,95.438,540.895,538.618,0.0
52091.0,STARLINK-3713,PAYLOAD,2023-11-25 03:15:28,15.08849755,0.0001913,53.2175,240.0688,127.4874,232.6292,0.00063018,9.758e-05,0.0,0 STARLINK-3713,1 52091U 22029D   23329.13574775  .00009758  00000-0  63018-3 0  9990,2 52091  53.2175 240.0688 0001913 127.4874 232.6292 15.08849755 94514,6917.851,95.437,541.039,538.392,0.0
52091.0,STARLINK-3713,PAYLOAD,2023-11-25 04:50:51,15.08854571,0.0001782,53.2171,239.7693,125.8721,234.2437,0.00089698,0.00014022,0.0,0 STARLINK-3713,1 52091U 22029D   23329.20198781  .00014022  00000-0  89698-3 0  9999,2 52091  53.2171 239.7693 0001782 125.8721 234.2437 15.08854571 94520,6917.836,95.437,540.934,538.468,0.0
52091.0,STARLINK-3713,PAYLOAD,2023-11-25 22:20:05,15.08875871,0.000236,53.2168,236.4958,154.8395,205.2712,0.0010882,0.0001709,0.0,0 STARLINK-3713,1 52091U 22029D   23329.93061572  .00017090  00000-0  10882-2 0  9992,2 52091  53.2168 236.4958 0002360 154.8395 205.2712 15.08875871 94638,6917.771,95.435,541.268,538.003,0.0
52091.0,STARLINK-3713,PAYLOAD,2023-11-26 03:06:14,15.08920628,0.0001559,53.2172,235.6044,113.1694,246.9463,0.0033315,0.00053251,0.0,0 STARLINK-3713,1 52091U 22029D   23330.12933004  .00053251  00000-0  33315-2 0  9998,2 52091  53.2172 235.6044 0001559 113.1694 246.9463 15.08920628 94668,6917.634,95.432,540.577,538.42,0.0
52091.0,STARLINK-3713,PAYLOAD,2023-11-26 22:10:53,15.08830094,0.0001681,53.2171,232.0395,115.9954,244.1212,0.00080865,0.00012602,0.0,0 STARLINK-3713,1 52091U 22029D   23330.92422515  .00012602  00000-0  80865-3 0  9994,2 52091  53.2171 232.0395 0001681 115.9954 244.1212 15.08830094 94784,6917.911,95.438,540.939,538.613,0.0
52091.0,STARLINK-3713,PAYLOAD,2023-11-27 04:32:25,15.08835108,0.0001343,53.2167,230.8511,78.6162,281.4981,0.0011764,0.00018481,0.0,0 STARLINK-3713,1 52091U 22029D   23331.18918902  .00018481  00000-0  11764-2 0  9995,2 52091  53.2167 230.8511 0001343  78.6162 281.4981 15.08835108 94829,6917.895,95.438,540.689,538.831,0.0
52091.0,STARLINK-3713,PAYLOAD,2023-11-27 22:01:41,15.08836567,0.0001477,53.2163,227.5807,87.5057,272.6104,0.0012789,0.00020122,0.0,0 STARLINK-3713,1 52091U 22029D   23331.91783790  .00020122  00000-0  12789-2 0  9994,2 52091  53.2163 227.5807 0001477  87.5057 272.6104 15.08836567 94937,6917.891,95.438,540.778,538.734,0.0
52091.0,STARLINK-3713,PAYLOAD,2023-11-28 02:47:50,15.08854928,0.0001624,53.2163,226.6878,90.3645,269.7533,0.0018424,0.00029168,0.0,0 STARLINK-3713,1 52091U 22029D   23332.11655600  .00029168  00000-0  18424-2 0  9996,2 52091  53.2163 226.6878 0001624  90.3645 269.7533 15.08854928 94961,6917.835,95.437,540.823,538.576,0.0
52091.0,STARLINK-3713,PAYLOAD,2023-11-28 20:17:04,15.08853457,0.0002598,53.2165,223.4136,129.0835,231.0388,0.0011266,0.00017694,0.0,0 STARLINK-3713,1 52091U 22029D   23332.84519271  .00017694  00000-0  11266-2 0  9997,2 52091  53.2165 223.4136 0002598 129.0835 231.0388 15.08853457 95076,6917.839,95.437,541.502,537.907,0.0
52091.0,STARLINK-3713,PAYLOAD,2023-11-28 21:52:27,15.08855787,0.0002431,53.2163,223.1177,123.4211,236.7014,0.00094905,0.00014855,0.0,0 STARLINK-3713,1 52091U 22029D   23332.91143231  .00014855  00000-0  94905-3 0  9992,2 52091  53.2163 223.1177 0002431 123.4211 236.7014 15.08855787 95085,6917.832,95.437,541.379,538.015,0.0
52091.0,STARLINK-3713,PAYLOAD,2023-11-28 23:27:51,15.08857092,0.0001706,53.2167,222.8233,94.8028,265.3159,0.0011463,0.00018011,0.0,0 STARLINK-3713,1 52091U 22029D   23332.97767396  .00018011  00000-0  11463-2 0  9997,2 52091  53.2167 222.8233 0001706  94.8028 265.3159 15.08857092 95099,6917.828,95.436,540.873,538.513,0.0
52091.0,STARLINK-3713,PAYLOAD,2023-11-29 20:07:51,15.08854022,0.0001747,53.2174,218.9555,107.22,252.8984,0.00070144,0.00010897,0.0,0 STARLINK-3713,1 52091U 22029D   23333.83879120  .00010897  00000-0  70144-3 0  9998,2 52091  53.2174 218.9555 0001747 107.2200 252.8984 15.08854022 95228,6917.838,95.437,540.911,538.494,0.0
52091.0,STARLINK-3713,PAYLOAD,2023-11-30 19:58:38,15.08834396,0.0002597,53.2159,214.489,133.2452,226.8757,0.00062857,9.728e-05,0.0,0 STARLINK-3713,1 52091U 22029D   23334.83239328  .00009728  00000-0  62857-3 0  9992,2 52091  53.2159 214.4890 0002597 133.2452 226.8757 15.08834396 95373,6917.898,95.438,541.559,537.966,0.0
52091.0,STARLINK-3713,PAYLOAD,2023-12-01 21:24:48,15.0887111,0.0001607,53.2155,209.7389,110.5627,249.5538,0.0011285,0.00017733,0.0,0 STARLINK-3713,1 52091U 22029D   23335.89222734  .00017733  00000-0  11285-2 0  9995,2 52091  53.2155 209.7389 0001607 110.5627 249.5538 15.08871110 95534,6917.785,95.436,540.762,538.539,0.0
52091.0,STARLINK-3713,PAYLOAD,2023-12-02 19:40:12,15.08854403,0.0001809,53.2154,205.5768,121.2675,238.8494,0.00043261,6.606e-05,0.0,0 STARLINK-3713,1 52091U 22029D   23336.81958605  .00006606  00000-0  43261-3 0  9998,2 52091  53.2154 205.5768 0001809 121.2675 238.8494 15.08854403 95677,6917.836,95.437,540.953,538.45,0.0
52091.0,STARLINK-3713,PAYLOAD,2023-12-02 22:50:58,15.0882025,0.0001488,53.2153,204.9822,66.2259,293.8889,0.00065782,0.00010191,0.0,0 STARLINK-3713,1 52091U 22029D   23336.95207110  .00010191  00000-0  65782-3 0  9997,2 52091  53.2153 204.9822 0001488  66.2259 293.8889 15.08820250 95693,6917.941,95.439,540.835,538.776,0.0
52091.0,STARLINK-3713,PAYLOAD,2023-12-03 00:26:22,15.08830304,0.0001413,53.2156,204.6832,71.3803,288.7342,-9.8651e-05,-1.857e-05,0.0,0 STARLINK-3713,1 52091U 22029D   23337.01831063 -.00001857  00000-0 -98651-4 0  9998,2 52091  53.2156 204.6832 0001413  71.3803 288.7342 15.08830304 95704,6917.91,95.438,540.753,538.798,0.0
52091.0,STARLINK-3713,PAYLOAD,2023-12-03 19:31:00,15.08817316,0.0001426,53.2155,201.1144,74.7041,285.4109,2.5359e-05,1.15e-06,0.0,0 STARLINK-3713,1 52091U 22029D   23337.81320466  .00000115  00000-0  25359-4 0  9995,2 52091  53.2155 201.1144 0001426  74.7041 285.4109 15.08817316 95822,6917.95,95.439,540.801,538.828,0.0
52091.0,STARLINK-3713,PAYLOAD,2023-12-04 00:17:11,15.08802948,0.0001696,53.2159,200.2223,79.9902,280.1282,0.00063959,9.895e-05,0.0,0 STARLINK-3713,1 52091U 22029D   23338.01193879  .00009895  00000-0  63959-3 0  9995,2 52091  53.2159 200.2223 0001696  79.9902 280.1282 15.08802948 95858,6917.994,95.44,541.032,538.685,0.0
52091.0,STARLINK-3713,PAYLOAD,2023-12-04 14:35:38,15.08829719,0.0001491,53.2168,197.5461,73.0117,287.1038,0.00015695,2.21e-05,0.0,0 STARLINK-3713,1 52091U 22029D   23338.60808710  .00002210  00000-0  15695-3 0  9995,2 52091  53.2168 197.5461 0001491  73.0117 287.1038 15.08829719 95947,6917.912,95.438,540.808,538.745,0.0
52091.0,STARLINK-3713,PAYLOAD,2023-12-04 16:11:01,15.08832606,0.0001488,53.2165,197.25,72.676,287.4394,0.00018048,2.585e-05,0.0,0 STARLINK-3713,1 52091U 22029D   23338.67432506  .00002585  00000-0  18048-3 0  9998,2 52091  53.2165 197.2500 0001488  72.6760 287.4394 15.08832606 95958,6917.903,95.438,540.797,538.739,0.0
52091.0,STARLINK-3713,PAYLOAD,2023-12-05 00:07:57,15.08838968,0.0001475,53.2164,195.7627,74.9251,285.1904,0.00022306,3.264e-05,0.0,0 STARLINK-3713,1 52091U 22029D   23339.00552135  .00003264  00000-0  22306-3 0  9994,2 52091  53.2164 195.7627 0001475  74.9251 285.1904 15.08838968 96002,6917.884,95.438,540.769,538.728,0.0
52091.0,STARLINK-3713,PAYLOAD,2023-12-05 23:58:43,15.08848383,0.0001491,53.2162,191.3025,72.8562,287.2593,0.000233,3.423e-05,0.0,0 STARLINK-3713,1 52091U 22029D   23339.99911572  .00003423  00000-0  23300-3 0  9998,2 52091  53.2162 191.3025 0001491  72.8562 287.2593 15.08848383 96159,6917.855,95.437,540.751,538.688,0.0
52091.0,STARLINK-3713,PAYLOAD,2023-12-07 14:07:59,15.08837337,0.000148,53.216,184.1654,77.2769,282.8389,-7.5057e-06,-4.07e-06,0.0,0 STARLINK-3713,1 52091U 22029D   23341.58888098 -.00000407  00000-0 -75057-5 0  9991,2 52091  53.2160 184.1654 0001480  77.2769 282.8389 15.08837337 96398,6917.889,95.438,540.777,538.73,0.0
52091.0,STARLINK-3713,PAYLOAD,2023-12-08 12:23:23,15.08840255,0.0001454,53.216,180.0018,77.9657,282.1498,4.728e-05,4.65e-06,0.0,0 STARLINK-3713,1 52091U 22029D   23342.51624060  .00000465  00000-0  47280-4 0  9990,2 52091  53.2160 180.0018 0001454  77.9657 282.1498 15.08840255 96534,6917.88,95.438,540.75,538.739,0.0
